[{"OBJECT_NAME":"STARLINK-35553","OBJECT_ID":"2025-237G","EPOCH":"2026-03-09T07:42:07.087968","MEAN_MOTION":15.30197444,"ECCENTRICITY":0.0001544,"INCLINATION":53.1614,"RA_OF_ASC_NODE":41.373,"ARG_OF_PERICENTER":85.7093,"MEAN_ANOMALY":274.4084,"EPHEMERIS_TYPE":0,"CLASSIFICATION_TYPE":"U","NORAD_CAT_ID":66120,"ELEMENT_SET_NO":999,"REV_AT_EPOCH":2255,"BSTAR":0.00092205888,"MEAN_MOTION_DOT":0.00027047,"MEAN_MOTION_DDOT":0},{"OBJECT_NAME":"CERISE","OBJECT_ID":"1995-033B","EPOCH":"2026-03-09T23:11:27.589056","MEAN_MOTION":15.32047731,"ECCENTRICITY":0.00057118,"INCLINATION":98.325,"RA_OF_ASC_NODE":273.5192,"ARG_OF_PERICENTER":211.8754,"MEAN_ANOMALY":148.214,"EPHEMERIS_TYPE":0,"CLASSIFICATION_TYPE":"U","NORAD_CAT_ID":23606,"ELEMENT_SET_NO":999,"REV_AT_EPOCH":66468,"BSTAR":0.00062940675,"MEAN_MOTION_DOT":0.00019422,"MEAN_MOTION_DDOT":0}]
